{
    "links": {
        "self": "http://www.neowsapp.com/rest/v1/neo/3576673?api_key=iIulBulltgU6a56xZRHN4H3l9WmuAYTsLGpBGhQ2"
    },
    "id": "3576673",
    "neo_reference_id": "3576673",
    "name": "(2011 QA14)",
    "designation": "2011 QA14",
    "nasa_jpl_url": "http://ssd.jpl.nasa.gov/sbdb.cgi?sstr=3576673",
    "absolute_magnitude_h": 23.3,
    "estimated_diameter": {
        "kilometers": {
            "estimated_diameter_min": 0.058150704,
            "estimated_diameter_max": 0.130028927
        },
        "meters": {
            "estimated_diameter_min": 58.1507039646,
            "estimated_diameter_max": 130.0289270043
        },
        "miles": {
            "estimated_diameter_min": 0.0361331611,
            "estimated_diameter_max": 0.0807962044
        },
        "feet": {
            "estimated_diameter_min": 190.7831555951,
            "estimated_diameter_max": 426.6041048727
        }
    },
    "is_potentially_hazardous_asteroid": false,
    "close_approach_data": [
        {
            "close_approach_date": "2011-08-19",
            "close_approach_date_full": "2011-Aug-19 23:34",
            "epoch_date_close_approach": 1313796840000,
            "relative_velocity": {
                "kilometers_per_second": "9.3983012346",
                "kilometers_per_hour": "33833.8844445254",
                "miles_per_hour": "21023.0600316553"
            },
            "miss_distance": {
                "astronomical": "0.1055687",
                "lunar": "41.0662243",
                "kilometers": "15792852.658669",
                "miles": "9813223.5968722"
            },
            "orbiting_body": "Earth"
        }
    ],
    "orbital_data": {
        "orbit_id": "10",
        "orbit_determination_date": "2017-04-06 08:52:58",
        "first_observation_date": "2011-08-22",
        "last_observation_date": "2011-09-25",
        "data_arc_in_days": 34,
        "observations_used": 31,
        "orbit_uncertainty": "7",
        "minimum_orbit_intersection": ".103212",
        "jupiter_tisserand_invariant": "3.465",
        "epoch_osculation": "2459000.5",
        "eccentricity": ".535717185694231",
        "semi_major_axis": "2.183972424776031",
        "inclination": "8.447966762337552",
        "ascending_node_longitude": "182.57010775775",
        "orbital_period": "1178.878786379936",
        "perihelion_distance": "1.01398086374121",
        "perihelion_argument": "114.3178463854099",
        "aphelion_distance": "3.353963985810851",
        "perihelion_time": "2459305.367887801250",
        "mean_anomaly": "266.9009970520597",
        "mean_motion": ".3053749072077858",
        "equinox": "J2000",
        "orbit_class": {
            "orbit_class_type": "APO",
            "orbit_class_description": "Near-Earth asteroid orbits which cross the Earth’s orbit similar to that of 1862 Apollo",
            "orbit_class_range": "a (semi-major axis) > 1.0 AU; q (perihelion) < 1.017 AU"
        }
    },
    "is_sentry_object": false
}